YAOGAN-30 06C           
1 44451U 19045C   26068.85043463  .00004352  00000+0  32596-3 0  9993
2 44451  34.9925 214.7382 0001081 261.6749  98.3837 15.02172666361604
STARLINK-5755           
1 55600U 23020AH  26067.21131571  .00001324  00000+0  11301-3 0  9993
2 55600  43.0059 359.9807 0001061 282.3198  77.7525 15.02545506168844
